HAWK-8B                 
1 59445U 24066D   26068.47430810  .00002353  00000+0  21133-3 0  9999
2 59445  45.6192  73.7012 0004280 258.0487 101.9914 14.98769819104860
STARLINK-36211          
1 67218U 25304AC  26068.67935196  .00001621  00000+0  14363-3 0  9995
2 67218  70.0017 174.4561 0003447 278.5173  81.5596 14.98335083 13855
