[{"OBJECT_NAME":"HAWK-8B","OBJECT_ID":"2024-066D","EPOCH":"2026-03-09T11:23:00.219840","MEAN_MOTION":14.98769819,"ECCENTRICITY":0.00042801,"INCLINATION":45.6192,"RA_OF_ASC_NODE":73.7012,"ARG_OF_PERICENTER":258.0487,"MEAN_ANOMALY":101.9914,"EPHEMERIS_TYPE":0,"CLASSIFICATION_TYPE":"U","NORAD_CAT_ID":59445,"ELEMENT_SET_NO":999,"REV_AT_EPOCH":10486,"BSTAR":0.00021132759,"MEAN_MOTION_DOT":2.353e-5,"MEAN_MOTION_DDOT":0},{"OBJECT_NAME":"STARLINK-36211","OBJECT_ID":"2025-304AC","EPOCH":"2026-03-09T16:18:16.009344","MEAN_MOTION":14.98335083,"ECCENTRICITY":0.00034467,"INCLINATION":70.0017,"RA_OF_ASC_NODE":174.4561,"ARG_OF_PERICENTER":278.5173,"MEAN_ANOMALY":81.5596,"EPHEMERIS_TYPE":0,"CLASSIFICATION_TYPE":"U","NORAD_CAT_ID":67218,"ELEMENT_SET_NO":999,"REV_AT_EPOCH":1385,"BSTAR":0.00014363061,"MEAN_MOTION_DOT":1.621e-5,"MEAN_MOTION_DDOT":0}]
